[{"OBJECT_NAME":"STARLINK-34743","OBJECT_ID":"2025-158F","EPOCH":"2026-03-09T14:42:33.702912","MEAN_MOTION":15.05642869,"ECCENTRICITY":0.0002568,"INCLINATION":97.6015,"RA_OF_ASC_NODE":294.0011,"ARG_OF_PERICENTER":68.4044,"MEAN_ANOMALY":291.7456,"EPHEMERIS_TYPE":0,"CLASSIFICATION_TYPE":"U","NORAD_CAT_ID":64937,"ELEMENT_SET_NO":999,"REV_AT_EPOCH":3534,"BSTAR":0.00045516,"MEAN_MOTION_DOT":6.512e-5,"MEAN_MOTION_DDOT":0},{"OBJECT_NAME":"COSMOS 2251 DEB","OBJECT_ID":"1993-036BFE","EPOCH":"2026-03-07T11:17:48.105024","MEAN_MOTION":15.02528382,"ECCENTRICITY":0.00920663,"INCLINATION":74.0305,"RA_OF_ASC_NODE":348.6467,"ARG_OF_PERICENTER":45.7,"MEAN_ANOMALY":315.169,"EPHEMERIS_TYPE":0,"CLASSIFICATION_TYPE":"U","NORAD_CAT_ID":37084,"ELEMENT_SET_NO":999,"REV_AT_EPOCH":67539,"BSTAR":0.00092223433,"MEAN_MOTION_DOT":0.00013425,"MEAN_MOTION_DDOT":0}]
